IRIDIUM 7 [-]           
1 24793U 97020B   24085.84180857  .00001294  00000+0  44652-3 0  9992
2 24793  86.4024   4.7240 0002251  92.8317 267.3137 14.35133296407577
IRIDIUM 5 [-]           
1 24795U 97020D   24085.92160234  .00010365  00000+0  10153-2 0  9997
2 24795  86.3872 289.0142 0122220 298.5637  60.3330 14.86648846418696
IRIDIUM 4 [-]           
1 24796U 97020E   24085.83252255  .00001483  00000+0  50369-3 0  9998
2 24796  86.4020   1.9062 0002065  88.3319 271.8115 14.36052590408106
IRIDIUM 914 [-]         
1 24836U 97030A   24085.87750035  .00001683  00000+0  52977-3 0  9996
2 24836  86.3996  11.7967 0000460 116.2920 243.8327 14.39895066542593
IRIDIUM 16 [-]          
1 24841U 97030F   24085.94010645  .00001762  00000+0  57897-3 0  9990
2 24841  86.4068  33.5210 0004313  91.5601 268.6091 14.37780362402571
IRIDIUM 911 [-]         
1 24842U 97030G   24085.94795535  .00002311  00000+0  63751-3 0  9996
2 24842  86.4496  32.7151 0015423 143.9025 216.3222 14.46384288410266
IRIDIUM 17 [-]          
1 24870U 97034B   24085.92625711  .00001768  00000+0  59191-3 0  9995
2 24870  86.3929  63.1512 0003609  68.1831 291.9750 14.36867278399199
IRIDIUM 920 [-]         
1 24871U 97034C   24085.94143498  .00001741  00000+0  53972-3 0  9997
2 24871  86.3987  43.4113 0013521 115.1129 245.1475 14.40593381402027
